{
  "type": "FeatureCollection",
  "features": [
    {
      "type": "Feature",
      "properties": {
        "norad_id": 30570,
        "name": "FENGYUN 1C DEB",
        "group": "fengyun-1c-debris",
        "lat": -68.35943007284177,
        "lon": 166.75954412342443,
        "alt_km": 827.3069440816898,
        "timestamp": "2025-12-02T17:49:12.305346+00:00",
        "meta_object_name": "FENGYUN 1C DEB",
        "meta_object_id": "1999-025ALL",
        "meta_epoch": "2025-12-02T01:37:03.250272",
        "meta_mean_motion": 14.14237555,
        "meta_eccentricity": 0.0034819,
        "meta_inclination": 98.7165,
        "meta_ra_of_asc_node": 8.8489,
        "meta_arg_of_pericenter": 242.7348,
        "meta_mean_anomaly": 172.0679,
        "meta_ephemeris_type": 0,
        "meta_classification_type": "U",
        "meta_norad_cat_id": 30570,
        "meta_element_set_no": 999,
        "meta_rev_at_epoch": 96847,
        "meta_bstar": 0.00054322061,
        "meta_mean_motion_dot": 9.99e-06,
        "meta_mean_motion_ddot": 0,
        "tle_line1": "1 30570U 99025ALL 25336.06739873  .00000999  00000+0  54322-3 0  9997",
        "tle_line2": "2 30570  98.7165   8.8489 0034819 242.7348 172.0679 14.14237555968478"
      },
      "geometry": {
        "type": "Point",
        "coordinates": [
          166.75954412342443,
          -68.35943007284177
        ]
      }
    },
    {
      "type": "Feature",
      "properties": {
        "norad_id": 30571,
        "name": "FENGYUN 1C DEB",
        "group": "fengyun-1c-debris",
        "lat": -44.610530081996274,
        "lon": 11.961211164341899,
        "alt_km": 854.4383082587483,
        "timestamp": "2025-12-02T17:49:12.305357+00:00",
        "meta_object_name": "FENGYUN 1C DEB",
        "meta_object_id": "1999-025ALM",
        "meta_epoch": "2025-12-02T01:16:36.488640",
        "meta_mean_motion": 14.10678999,
        "meta_eccentricity": 0.00205054,
        "meta_inclination": 98.7323,
        "meta_ra_of_asc_node": 2.5707,
        "meta_arg_of_pericenter": 265.316,
        "meta_mean_anomaly": 150.6747,
        "meta_ephemeris_type": 0,
        "meta_classification_type": "U",
        "meta_norad_cat_id": 30571,
        "meta_element_set_no": 999,
        "meta_rev_at_epoch": 96736,
        "meta_bstar": 0.00027259478,
        "meta_mean_motion_dot": 4.45e-06,
        "meta_mean_motion_ddot": 0,
        "tle_line1": "1 30571U 99025ALM 25336.05320010  .00000445  00000+0  27259-3 0  9991",
        "tle_line2": "2 30571  98.7323   2.5707 0020505 265.3160 150.6747 14.10678999967361"
      },
      "geometry": {
        "type": "Point",
        "coordinates": [
          11.961211164341899,
          -44.610530081996274
        ]
      }
    },
    {
      "type": "Feature",
      "properties": {
        "norad_id": 30572,
        "name": "FENGYUN 1C DEB",
        "group": "fengyun-1c-debris",
        "lat": -73.08023803099687,
        "lon": 37.14175403883312,
        "alt_km": 858.2127695001327,
        "timestamp": "2025-12-02T17:49:12.305367+00:00",
        "meta_object_name": "FENGYUN 1C DEB",
        "meta_object_id": "1999-025ALN",
        "meta_epoch": "2025-12-02T01:23:21.856704",
        "meta_mean_motion": 14.08904034,
        "meta_eccentricity": 0.00214701,
        "meta_inclination": 98.7735,
        "meta_ra_of_asc_node": 5.967,
        "meta_arg_of_pericenter": 324.9516,
        "meta_mean_anomaly": 89.2988,
        "meta_ephemeris_type": 0,
        "meta_classification_type": "U",
        "meta_norad_cat_id": 30572,
        "meta_element_set_no": 999,
        "meta_rev_at_epoch": 96611,
        "meta_bstar": 0.00029936528,
        "meta_mean_motion_dot": 4.75e-06,
        "meta_mean_motion_ddot": 0,
        "tle_line1": "1 30572U 99025ALN 25336.05789186  .00000475  00000+0  29937-3 0  9993",
        "tle_line2": "2 30572  98.7735   5.9670 0021470 324.9516  89.2988 14.08904034966119"
      },
      "geometry": {
        "type": "Point",
        "coordinates": [
          37.14175403883312,
          -73.08023803099687
        ]
      }
    },
    {
      "type": "Feature",
      "properties": {
        "norad_id": 30573,
        "name": "FENGYUN 1C DEB",
        "group": "fengyun-1c-debris",
        "lat": 38.80483882606121,
        "lon": 6.649247975198619,
        "alt_km": 851.2652434264237,
        "timestamp": "2025-12-02T17:49:12.305377+00:00",
        "meta_object_name": "FENGYUN 1C DEB",
        "meta_object_id": "1999-025ALP",
        "meta_epoch": "2025-12-02T02:37:52.789728",
        "meta_mean_motion": 14.13722518,
        "meta_eccentricity": 0.00878953,
        "meta_inclination": 99.2283,
        "meta_ra_of_asc_node": 13.5085,
        "meta_arg_of_pericenter": 303.886,
        "meta_mean_anomaly": 115.4792,
        "meta_ephemeris_type": 0,
        "meta_classification_type": "U",
        "meta_norad_cat_id": 30573,
        "meta_element_set_no": 999,
        "meta_rev_at_epoch": 96047,
        "meta_bstar": 0.0020339002,
        "meta_mean_motion_dot": 3.942e-05,
        "meta_mean_motion_ddot": 0,
        "tle_line1": "1 30573U 99025ALP 25336.10963877  .00003942  00000+0  20339-2 0  9999",
        "tle_line2": "2 30573  99.2283  13.5085 0087895 303.8860 115.4792 14.13722518960479"
      },
      "geometry": {
        "type": "Point",
        "coordinates": [
          6.649247975198619,
          38.80483882606121
        ]
      }
    },
    {
      "type": "Feature",
      "properties": {
        "norad_id": 30574,
        "name": "FENGYUN 1C DEB",
        "group": "fengyun-1c-debris",
        "lat": -15.965349795819362,
        "lon": -42.15394851933042,
        "alt_km": 1138.3151184752114,
        "timestamp": "2025-12-02T17:49:12.305387+00:00",
        "meta_object_name": "FENGYUN 1C DEB",
        "meta_object_id": "1999-025ALQ",
        "meta_epoch": "2025-12-02T09:54:02.420928",
        "meta_mean_motion": 13.77447627,
        "meta_eccentricity": 0.0218711,
        "meta_inclination": 99.3022,
        "meta_ra_of_asc_node": 140.2104,
        "meta_arg_of_pericenter": 14.8932,
        "meta_mean_anomaly": 345.8526,
        "meta_ephemeris_type": 0,
        "meta_classification_type": "U",
        "meta_norad_cat_id": 30574,
        "meta_element_set_no": 999,
        "meta_rev_at_epoch": 93626,
        "meta_bstar": 0.0023819,
        "meta_mean_motion_dot": 2.784e-05,
        "meta_mean_motion_ddot": 0,
        "tle_line1": "1 30574U 99025ALQ 25336.41252802  .00002784  00000+0  23819-2 0  9992",
        "tle_line2": "2 30574  99.3022 140.2104 0218711  14.8932 345.8526 13.77447627936262"
      },
      "geometry": {
        "type": "Point",
        "coordinates": [
          -42.15394851933042,
          -15.965349795819362
        ]
      }
    },
    {
      "type": "Feature",
      "properties": {
        "norad_id": 30575,
        "name": "FENGYUN 1C DEB",
        "group": "fengyun-1c-debris",
        "lat": -63.99447856976707,
        "lon": -132.380675512435,
        "alt_km": 729.8060714239855,
        "timestamp": "2025-12-02T17:49:12.305397+00:00",
        "meta_object_name": "FENGYUN 1C DEB",
        "meta_object_id": "1999-025ALR",
        "meta_epoch": "2025-12-02T05:18:45.858240",
        "meta_mean_motion": 14.39949645,
        "meta_eccentricity": 0.0053809,
        "meta_inclination": 99.1709,
        "meta_ra_of_asc_node": 66.3998,
        "meta_arg_of_pericenter": 267.5023,
        "meta_mean_anomaly": 158.2528,
        "meta_ephemeris_type": 0,
        "meta_classification_type": "U",
        "meta_norad_cat_id": 30575,
        "meta_element_set_no": 999,
        "meta_rev_at_epoch": 98066,
        "meta_bstar": 0.0013024,
        "meta_mean_motion_dot": 4.12e-05,
        "meta_mean_motion_ddot": 0,
        "tle_line1": "1 30575U 99025ALR 25336.22136410  .00004120  00000+0  13024-2 0  9991",
        "tle_line2": "2 30575  99.1709  66.3998 0053809 267.5023 158.2528 14.39949645980662"
      },
      "geometry": {
        "type": "Point",
        "coordinates": [
          -132.380675512435,
          -63.99447856976707
        ]
      }
    },
    {
      "type": "Feature",
      "properties": {
        "norad_id": 30577,
        "name": "FENGYUN 1C DEB",
        "group": "fengyun-1c-debris",
        "lat": -73.15755603242772,
        "lon": 160.2403912542026,
        "alt_km": 851.2157394021915,
        "timestamp": "2025-12-02T17:49:12.305425+00:00",
        "meta_object_name": "FENGYUN 1C DEB",
        "meta_object_id": "1999-025ALT",
        "meta_epoch": "2025-12-02T01:33:22.778208",
        "meta_mean_motion": 14.11113648,
        "meta_eccentricity": 0.0028618,
        "meta_inclination": 98.7718,
        "meta_ra_of_asc_node": 10.2449,
        "meta_arg_of_pericenter": 313.4432,
        "meta_mean_anomaly": 101.7817,
        "meta_ephemeris_type": 0,
        "meta_classification_type": "U",
        "meta_norad_cat_id": 30577,
        "meta_element_set_no": 999,
        "meta_rev_at_epoch": 96634,
        "meta_bstar": 0.00054944982,
        "meta_mean_motion_dot": 9.5e-06,
        "meta_mean_motion_ddot": 0,
        "tle_line1": "1 30577U 99025ALT 25336.06484697  .00000950  00000+0  54945-3 0  9993",
        "tle_line2": "2 30577  98.7718  10.2449 0028618 313.4432 101.7817 14.11113648966342"
      },
      "geometry": {
        "type": "Point",
        "coordinates": [
          160.2403912542026,
          -73.15755603242772
        ]
      }
    }
  ]
}